start=new Date('2022-01-25T00:00:00.000Z').valueOf();
sats=[{"ECCENTRICITY":"0.00020800","INCLINATION":"53.0531","MEAN_ANOMALY":"277.0368","EPOCH":"2022-01-24T16:29:24.992448","MEAN_MOTION":"15.06393350","MEAN_MOTION_DDOT":"0.0000000000000","APOAPSIS":"548.674","COUNTRY_CODE":"US","RA_OF_ASC_NODE":"192.8440","NORAD_CAT_ID":"47883","MEAN_ELEMENT_THEORY":"SGP4","SEMIMAJOR_AXIS":"6925.369","LAUNCH_DATE":"2021-03-14","MEAN_MOTION_DOT":"-0.00000578","OBJECT_TYPE":"PAYLOAD","TLE_LINE1":"1 47883U 21021Z   22024.68709482 -.00000578  00000-0 -19871-4 0  9992","SITE":"AFETR","OBJECT_NAME":"STARLINK-2342","DECAY_DATE":null,"OBJECT_ID":"2021-021Z","PERIAPSIS":"545.793","ARG_OF_PERICENTER":"83.0858","PERIOD":"95.593","RCS_SIZE":"LARGE","GP_ID":"194570290","TLE_LINE2":"2 47883  53.0531 192.8440 0002080  83.0858 277.0368 15.06393350 49459","CLASSIFICATION_TYPE":"U","ELEMENT_SET_NO":"999","EPHEMERIS_TYPE":"0","BSTAR":"-0.00001987100000","CENTER_NAME":"EARTH","REV_AT_EPOCH":"4945","REF_FRAME":"TEME","TIME_SYSTEM":"UTC","FILE":"3282614"},{"GP_ID":"194570540","RCS_SIZE":"LARGE","TIME_SYSTEM":"UTC","FILE":"3282614","REV_AT_EPOCH":"4923","REF_FRAME":"TEME","BSTAR":"0.00016286000000","CENTER_NAME":"EARTH","CLASSIFICATION_TYPE":"U","ELEMENT_SET_NO":"999","EPHEMERIS_TYPE":"0","TLE_LINE2":"2 47884  53.0542 197.0172 0001990  83.7033 276.4183 15.06408161 49233","DECAY_DATE":null,"OBJECT_NAME":"STARLINK-2343","PERIOD":"95.592","ARG_OF_PERICENTER":"83.7033","PERIAPSIS":"545.810","OBJECT_ID":"2021-021AA","MEAN_ELEMENT_THEORY":"SGP4","NORAD_CAT_ID":"47884","OBJECT_TYPE":"PAYLOAD","TLE_LINE1":"1 47884U 21021AA  22024.86909564  .00002145  00000-0  16286-3 0  9992","SITE":"AFETR","MEAN_MOTION_DOT":"0.00002145","LAUNCH_DATE":"2021-03-14","SEMIMAJOR_AXIS":"6925.324","MEAN_MOTION":"15.06408161","EPOCH":"2022-01-24T20:51:29.863296","INCLINATION":"53.0542","MEAN_ANOMALY":"276.4183","ECCENTRICITY":"0.00019900","COUNTRY_CODE":"US","RA_OF_ASC_NODE":"197.0172","APOAPSIS":"548.567","MEAN_MOTION_DDOT":"0.0000000000000"},{"MEAN_MOTION_DDOT":"0.0000000000000","APOAPSIS":"548.670","COUNTRY_CODE":"US","RA_OF_ASC_NODE":"202.0394","ECCENTRICITY":"0.00021040","INCLINATION":"53.0541","MEAN_ANOMALY":"281.1135","EPOCH":"2022-01-24T20:42:52.165728","MEAN_MOTION":"15.06400126","SEMIMAJOR_AXIS":"6925.348","LAUNCH_DATE":"2021-03-14","MEAN_MOTION_DOT":"0.00001653","SITE":"AFETR","TLE_LINE1":"1 47885U 21021AB  22024.86310377  .00001653  00000-0  12985-3 0  9996","OBJECT_TYPE":"PAYLOAD","NORAD_CAT_ID":"47885","MEAN_ELEMENT_THEORY":"SGP4","OBJECT_ID":"2021-021AB","PERIAPSIS":"545.756","ARG_OF_PERICENTER":"79.0090","PERIOD":"95.592","OBJECT_NAME":"STARLINK-2344","DECAY_DATE":null,"TLE_LINE2":"2 47885  53.0541 202.0394 0002104  79.0090 281.1135 15.06400126 49328","ELEMENT_SET_NO":"999","CLASSIFICATION_TYPE":"U","EPHEMERIS_TYPE":"0","REF_FRAME":"TEME","REV_AT_EPOCH":"4932","CENTER_NAME":"EARTH","BSTAR":"0.00012985000000","FILE":"3282614","TIME_SYSTEM":"UTC","RCS_SIZE":"LARGE","GP_ID":"194570792"},{"MEAN_ELEMENT_THEORY":"SGP4","NORAD_CAT_ID":"47886","SITE":"AFETR","TLE_LINE1":"1 47886U 21021AC  22024.86309326  .00001491  00000-0  11896-3 0  9999","OBJECT_TYPE":"PAYLOAD","MEAN_MOTION_DOT":"0.00001491","LAUNCH_DATE":"2021-03-14","SEMIMAJOR_AXIS":"6925.328","MEAN_MOTION":"15.06406693","EPOCH":"2022-01-24T20:42:51.257664","MEAN_ANOMALY":"278.3123","INCLINATION":"53.0547","ECCENTRICITY":"0.00021540","COUNTRY_CODE":"US","RA_OF_ASC_NODE":"192.0471","APOAPSIS":"548.685","MEAN_MOTION_DDOT":"0.0000000000000","GP_ID":"194571535","RCS_SIZE":"LARGE","FILE":"3282614","TIME_SYSTEM":"UTC","BSTAR":"0.00011896000000","CENTER_NAME":"EARTH","REV_AT_EPOCH":"4931","REF_FRAME":"TEME","CLASSIFICATION_TYPE":"U","ELEMENT_SET_NO":"999","EPHEMERIS_TYPE":"0","TLE_LINE2":"2 47886  53.0547 192.0471 0002154  81.8110 278.3123 15.06406693 49317","DECAY_DATE":null,"OBJECT_NAME":"STARLINK-2345","PERIOD":"95.592","ARG_OF_PERICENTER":"81.8110","PERIAPSIS":"545.701","OBJECT_ID":"2021-021AC"},{"GP_ID":"194569791","RCS_SIZE":"LARGE","TIME_SYSTEM":"UTC","FILE":"3282614","REV_AT_EPOCH":"4922","REF_FRAME":"TEME","BSTAR":"0.00007663900000","CENTER_NAME":"EARTH","CLASSIFICATION_TYPE":"U","ELEMENT_SET_NO":"999","EPHEMERIS_TYPE":"0","TLE_LINE2":"2 47887  53.0523 197.5411 0002458  82.0531 278.0737 15.06393758 49228","DECAY_DATE":null,"OBJECT_NAME":"STARLINK-2346","PERIOD":"95.593","ARG_OF_PERICENTER":"82.0531","PERIAPSIS":"545.530","OBJECT_ID":"2021-021AD","MEAN_ELEMENT_THEORY":"SGP4","NORAD_CAT_ID":"47887","TLE_LINE1":"1 47887U 21021AD  22024.75484712  .00000860  00000-0  76639-4 0  9997","OBJECT_TYPE":"PAYLOAD","SITE":"AFETR","MEAN_MOTION_DOT":"0.00000860","SEMIMAJOR_AXIS":"6925.368","LAUNCH_DATE":"2021-03-14","MEAN_MOTION":"15.06393758","EPOCH":"2022-01-24T18:06:58.791168","MEAN_ANOMALY":"278.0737","INCLINATION":"53.0523","ECCENTRICITY":"0.00024580","COUNTRY_CODE":"US","RA_OF_ASC_NODE":"197.5411","APOAPSIS":"548.935","MEAN_MOTION_DDOT":"0.0000000000000"},{"MEAN_ELEMENT_THEORY":"SGP4","NORAD_CAT_ID":"47888","OBJECT_TYPE":"PAYLOAD","TLE_LINE1":"1 47888U 21021AE  22024.84421411  .00001307  00000-0  10663-3 0  9996","SITE":"AFETR","SEMIMAJOR_AXIS":"6925.353","LAUNCH_DATE":"2021-03-14","MEAN_MOTION_DOT":"0.00001307","EPOCH":"2022-01-24T20:15:40.099104","MEAN_MOTION":"15.06398529","ECCENTRICITY":"0.00019510","INCLINATION":"53.0548","MEAN_ANOMALY":"280.3011","APOAPSIS":"548.569","COUNTRY_CODE":"US","RA_OF_ASC_NODE":"187.1277","MEAN_MOTION_DDOT":"0.0000000000000","RCS_SIZE":"LARGE","GP_ID":"194570041","BSTAR":"0.00010663000000","CENTER_NAME":"EARTH","REF_FRAME":"TEME","REV_AT_EPOCH":"4938","TIME_SYSTEM":"UTC","FILE":"3282614","TLE_LINE2":"2 47888  53.0548 187.1277 0001951  79.8198 280.3011 15.06398529 49380","EPHEMERIS_TYPE":"0","ELEMENT_SET_NO":"999","CLASSIFICATION_TYPE":"U","OBJECT_NAME":"STARLINK-2348","DECAY_DATE":null,"ARG_OF_PERICENTER":"79.8198","PERIOD":"95.592","OBJECT_ID":"2021-021AE","PERIAPSIS":"545.867"},{"TLE_LINE1":"1 47889U 21021AF  22024.85526629  .00001230  00000-0  10141-3 0  9991","SITE":"AFETR","OBJECT_TYPE":"PAYLOAD","MEAN_MOTION_DOT":"0.00001230","LAUNCH_DATE":"2021-03-14","SEMIMAJOR_AXIS":"6925.314","MEAN_ELEMENT_THEORY":"SGP4","NORAD_CAT_ID":"47889","COUNTRY_CODE":"US","RA_OF_ASC_NODE":"187.0863","APOAPSIS":"548.540","MEAN_MOTION_DDOT":"0.0000000000000","MEAN_MOTION":"15.06411397","EPOCH":"2022-01-24T20:31:35.007456","INCLINATION":"53.0537","MEAN_ANOMALY":"276.5561","ECCENTRICITY":"0.00019660","FILE":"3282614","TIME_SYSTEM":"UTC","BSTAR":"0.00010141000000","CENTER_NAME":"EARTH","REV_AT_EPOCH":"4943","REF_FRAME":"TEME","ELEMENT_SET_NO":"999","CLASSIFICATION_TYPE":"U","EPHEMERIS_TYPE":"0","TLE_LINE2":"2 47889  53.0537 187.0863 0001966  83.5652 276.5561 15.06411397 49434","GP_ID":"194571292","RCS_SIZE":"LARGE","PERIOD":"95.591","ARG_OF_PERICENTER":"83.5652","PERIAPSIS":"545.817","OBJECT_ID":"2021-021AF","DECAY_DATE":null,"OBJECT_NAME":"STARLINK-2349"},{"TLE_LINE2":"2 47890  53.0539 176.1674 0001746 114.2938 245.8250 15.43943964 48571","EPHEMERIS_TYPE":"0","ELEMENT_SET_NO":"999","CLASSIFICATION_TYPE":"U","REV_AT_EPOCH":"4857","REF_FRAME":"TEME","CENTER_NAME":"EARTH","BSTAR":"0.00025633000000","TIME_SYSTEM":"UTC","FILE":"3282614","RCS_SIZE":"LARGE","GP_ID":"194571036","OBJECT_ID":"2021-021AG","PERIAPSIS":"433.295","ARG_OF_PERICENTER":"114.2938","PERIOD":"93.268","OBJECT_NAME":"STARLINK-2350","DECAY_DATE":null,"SEMIMAJOR_AXIS":"6812.620","LAUNCH_DATE":"2021-03-14","MEAN_MOTION_DOT":"0.00011443","TLE_LINE1":"1 47890U 21021AG  22024.69779174  .00011443  00000-0  25633-3 0  9999","OBJECT_TYPE":"PAYLOAD","SITE":"AFETR","NORAD_CAT_ID":"47890","MEAN_ELEMENT_THEORY":"SGP4","MEAN_MOTION_DDOT":"0.0000000000000","APOAPSIS":"435.674","RA_OF_ASC_NODE":"176.1674","COUNTRY_CODE":"US","ECCENTRICITY":"0.00017460","INCLINATION":"53.0539","MEAN_ANOMALY":"245.8250","EPOCH":"2022-01-24T16:44:49.206336","MEAN_MOTION":"15.43943964"},{"REV_AT_EPOCH":"4940","REF_FRAME":"TEME","CENTER_NAME":"EARTH","BSTAR":"0.00009053600000","TIME_SYSTEM":"UTC","FILE":"3282614","TLE_LINE2":"2 47891  53.0553 197.0501 0002071  80.8728 279.2495 15.06397908 49401","EPHEMERIS_TYPE":"0","ELEMENT_SET_NO":"999","CLASSIFICATION_TYPE":"U","RCS_SIZE":"LARGE","GP_ID":"194570291","ARG_OF_PERICENTER":"80.8728","PERIOD":"95.592","OBJECT_ID":"2021-021AH","PERIAPSIS":"545.786","OBJECT_NAME":"STARLINK-2351","DECAY_DATE":null,"TLE_LINE1":"1 47891U 21021AH  22024.86172115  .00001067  00000-0  90536-4 0  9997","OBJECT_TYPE":"PAYLOAD","SITE":"AFETR","SEMIMAJOR_AXIS":"6925.355","LAUNCH_DATE":"2021-03-14","MEAN_MOTION_DOT":"0.00001067","MEAN_ELEMENT_THEORY":"SGP4","NORAD_CAT_ID":"47891","APOAPSIS":"548.654","COUNTRY_CODE":"US","RA_OF_ASC_NODE":"197.0501","MEAN_MOTION_DDOT":"0.0000000000000","EPOCH":"2022-01-24T20:40:52.707360","MEAN_MOTION":"15.06397908","ECCENTRICITY":"0.00020710","INCLINATION":"53.0553","MEAN_ANOMALY":"279.2495"},{"GP_ID":"194570541","RCS_SIZE":"LARGE","TIME_SYSTEM":"UTC","FILE":"3282614","CENTER_NAME":"EARTH","BSTAR":"0.00012071000000","REV_AT_EPOCH":"4924","REF_FRAME":"TEME","ELEMENT_SET_NO":"999","CLASSIFICATION_TYPE":"U","EPHEMERIS_TYPE":"0","TLE_LINE2":"2 47892  53.0552 196.9750 0002332  85.0563 275.0692 15.06408707 49244","DECAY_DATE":null,"OBJECT_NAME":"STARLINK-2352","PERIOD":"95.592","ARG_OF_PERICENTER":"85.0563","PERIAPSIS":"545.572","OBJECT_ID":"2021-021AJ","MEAN_ELEMENT_THEORY":"SGP4","NORAD_CAT_ID":"47892","TLE_LINE1":"1 47892U 21021AJ  22024.88015587  .00001517  00000-0  12071-3 0  9996","OBJECT_TYPE":"PAYLOAD","SITE":"AFETR","MEAN_MOTION_DOT":"0.00001517","SEMIMAJOR_AXIS":"6925.322","LAUNCH_DATE":"2021-03-14","MEAN_MOTION":"15.06408707","EPOCH":"2022-01-24T21:07:25.467168","MEAN_ANOMALY":"275.0692","INCLINATION":"53.0552","ECCENTRICITY":"0.00023320","COUNTRY_CODE":"US","RA_OF_ASC_NODE":"196.9750","APOAPSIS":"548.802","MEAN_MOTION_DDOT":"0.0000000000000"}];
